[{"COMMENT":"GENERATED VIA SPACETRACK.ORG API","ORIGINATOR":"18 SPCS","NORAD_CAT_ID":"43476","OBJECT_NAME":"GRACE-FO 1","OBJECT_TYPE":"PAYLOAD","CLASSIFICATION_TYPE":"U","INTLDES":"18047A","EPOCH":"2023-11-01 22:24:48","EPOCH_MICROSECONDS":"809664","MEAN_MOTION":"15.27211594","ECCENTRICITY":"0.0011608","INCLINATION":"88.9826","RA_OF_ASC_NODE":"330.4486","ARG_OF_PERICENTER":"217.247","MEAN_ANOMALY":"142.7975","EPHEMERIS_TYPE":"0","ELEMENT_SET_NO":"999","REV_AT_EPOCH":"30301","BSTAR":"0.00014272","MEAN_MOTION_DOT":"0.00003839","MEAN_MOTION_DDOT":"0","FILE":"4065398","TLE_LINE0":"0 GRACE-FO 1","TLE_LINE1":"1 43476U 18047A   23305.93389826  .00003839  00000-0  14272-3 0  9997","TLE_LINE2":"2 43476  88.9826 330.4486 0011608 217.2470 142.7975 15.27211594303013","OBJECT_ID":"2018-047A","OBJECT_NUMBER":"43476","SEMIMAJOR_AXIS":"6862.289","PERIOD":"94.289","APOGEE":"492.120","PERIGEE":"476.189","DECAYED":"0"},{"COMMENT":"GENERATED VIA SPACETRACK.ORG API","ORIGINATOR":"18 SPCS","NORAD_CAT_ID":"43476","OBJECT_NAME":"GRACE-FO 1","OBJECT_TYPE":"PAYLOAD","CLASSIFICATION_TYPE":"U","INTLDES":"18047A","EPOCH":"2023-11-02 04:42:14","EPOCH_MICROSECONDS":"133024","MEAN_MOTION":"15.27214069","ECCENTRICITY":"0.0011649","INCLINATION":"88.9827","RA_OF_ASC_NODE":"330.4127","ARG_OF_PERICENTER":"216.1009","MEAN_ANOMALY":"143.9455","EPHEMERIS_TYPE":"0","ELEMENT_SET_NO":"999","REV_AT_EPOCH":"30305","BSTAR":"0.00014678","MEAN_MOTION_DOT":"0.00003948","MEAN_MOTION_DDOT":"0","FILE":"4065704","TLE_LINE0":"0 GRACE-FO 1","TLE_LINE1":"1 43476U 18047A   23306.19599691  .00003948  00000-0  14678-3 0  9990","TLE_LINE2":"2 43476  88.9827 330.4127 0011649 216.1009 143.9455 15.27214069303057","OBJECT_ID":"2018-047A","OBJECT_NUMBER":"43476","SEMIMAJOR_AXIS":"6862.282","PERIOD":"94.289","APOGEE":"492.141","PERIGEE":"476.153","DECAYED":"0"},{"COMMENT":"GENERATED VIA SPACETRACK.ORG API","ORIGINATOR":"18 SPCS","NORAD_CAT_ID":"43476","OBJECT_NAME":"GRACE-FO 1","OBJECT_TYPE":"PAYLOAD","CLASSIFICATION_TYPE":"U","INTLDES":"18047A","EPOCH":"2023-11-02 14:08:22","EPOCH_MICROSECONDS":"67520","MEAN_MOTION":"15.27217125","ECCENTRICITY":"0.0011713","INCLINATION":"88.9827","RA_OF_ASC_NODE":"330.3587","ARG_OF_PERICENTER":"214.3234","MEAN_ANOMALY":"145.7259","EPHEMERIS_TYPE":"0","ELEMENT_SET_NO":"999","REV_AT_EPOCH":"30311","BSTAR":"0.00014127","MEAN_MOTION_DOT":"0.00003801","MEAN_MOTION_DDOT":"0","FILE":"4066590","TLE_LINE0":"0 GRACE-FO 1","TLE_LINE1":"1 43476U 18047A   23306.58914430  .00003801  00000-0  14127-3 0  9992","TLE_LINE2":"2 43476  88.9827 330.3587 0011713 214.3234 145.7259 15.27217125303113","OBJECT_ID":"2018-047A","OBJECT_NUMBER":"43476","SEMIMAJOR_AXIS":"6862.273","PERIOD":"94.289","APOGEE":"492.176","PERIGEE":"476.100","DECAYED":"0"},{"COMMENT":"GENERATED VIA SPACETRACK.ORG API","ORIGINATOR":"18 SPCS","NORAD_CAT_ID":"43476","OBJECT_NAME":"GRACE-FO 1","OBJECT_TYPE":"PAYLOAD","CLASSIFICATION_TYPE":"U","INTLDES":"18047A","EPOCH":"2023-11-02 22:00:08","EPOCH_MICROSECONDS":"629056","MEAN_MOTION":"15.27219631","ECCENTRICITY":"0.0011774","INCLINATION":"88.9828","RA_OF_ASC_NODE":"330.3139","ARG_OF_PERICENTER":"212.8536","MEAN_ANOMALY":"147.1982","EPHEMERIS_TYPE":"0","ELEMENT_SET_NO":"999","REV_AT_EPOCH":"30316","BSTAR":"0.00013844","MEAN_MOTION_DOT":"0.00003726","MEAN_MOTION_DDOT":"0","FILE":"4067000","TLE_LINE0":"0 GRACE-FO 1","TLE_LINE1":"1 43476U 18047A   23306.91676654  .00003726  00000-0  13844-3 0  9993","TLE_LINE2":"2 43476  88.9828 330.3139 0011774 212.8536 147.1982 15.27219631303160","OBJECT_ID":"2018-047A","OBJECT_NUMBER":"43476","SEMIMAJOR_AXIS":"6862.265","PERIOD":"94.289","APOGEE":"492.210","PERIGEE":"476.051","DECAYED":"0"},{"COMMENT":"GENERATED VIA SPACETRACK.ORG API","ORIGINATOR":"18 SPCS","NORAD_CAT_ID":"43476","OBJECT_NAME":"GRACE-FO 1","OBJECT_TYPE":"PAYLOAD","CLASSIFICATION_TYPE":"U","INTLDES":"18047A","EPOCH":"2023-11-03 10:34:59","EPOCH_MICROSECONDS":"30400","MEAN_MOTION":"15.27223979","ECCENTRICITY":"0.0011867","INCLINATION":"88.9829","RA_OF_ASC_NODE":"330.2421","ARG_OF_PERICENTER":"210.537","MEAN_ANOMALY":"149.519","EPHEMERIS_TYPE":"0","ELEMENT_SET_NO":"999","REV_AT_EPOCH":"30324","BSTAR":"0.00014118","MEAN_MOTION_DOT":"0.000038","MEAN_MOTION_DDOT":"0","FILE":"4067978","TLE_LINE0":"0 GRACE-FO 1","TLE_LINE1":"1 43476U 18047A   23307.44096100  .00003800  00000-0  14118-3 0  9992","TLE_LINE2":"2 43476  88.9829 330.2421 0011867 210.5370 149.5190 15.27223979303244","OBJECT_ID":"2018-047A","OBJECT_NUMBER":"43476","SEMIMAJOR_AXIS":"6862.252","PERIOD":"94.289","APOGEE":"492.261","PERIGEE":"475.974","DECAYED":"0"},{"COMMENT":"GENERATED VIA SPACETRACK.ORG API","ORIGINATOR":"18 SPCS","NORAD_CAT_ID":"43476","OBJECT_NAME":"GRACE-FO 1","OBJECT_TYPE":"PAYLOAD","CLASSIFICATION_TYPE":"U","INTLDES":"18047A","EPOCH":"2023-11-03 13:43:41","EPOCH_MICROSECONDS":"605248","MEAN_MOTION":"15.27225918","ECCENTRICITY":"0.0011885","INCLINATION":"88.9829","RA_OF_ASC_NODE":"330.2242","ARG_OF_PERICENTER":"209.9621","MEAN_ANOMALY":"150.095","EPHEMERIS_TYPE":"0","ELEMENT_SET_NO":"999","REV_AT_EPOCH":"30326","BSTAR":"0.00015391","MEAN_MOTION_DOT":"0.0000414","MEAN_MOTION_DDOT":"0","FILE":"4068165","TLE_LINE0":"0 GRACE-FO 1","TLE_LINE1":"1 43476U 18047A   23307.57200932  .00004140  00000-0  15391-3 0  9998","TLE_LINE2":"2 43476  88.9829 330.2242 0011885 209.9621 150.0950 15.27225918303264","OBJECT_ID":"2018-047A","OBJECT_NUMBER":"43476","SEMIMAJOR_AXIS":"6862.247","PERIOD":"94.289","APOGEE":"492.267","PERIGEE":"475.956","DECAYED":"0"},{"COMMENT":"GENERATED VIA SPACETRACK.ORG API","ORIGINATOR":"18 SPCS","NORAD_CAT_ID":"43476","OBJECT_NAME":"GRACE-FO 1","OBJECT_TYPE":"PAYLOAD","CLASSIFICATION_TYPE":"U","INTLDES":"18047A","EPOCH":"2023-11-03 21:35:28","EPOCH_MICROSECONDS":"29408","MEAN_MOTION":"15.2722836","ECCENTRICITY":"0.0011938","INCLINATION":"88.9829","RA_OF_ASC_NODE":"330.1794","ARG_OF_PERICENTER":"208.5262","MEAN_ANOMALY":"151.5336","EPHEMERIS_TYPE":"0","ELEMENT_SET_NO":"999","REV_AT_EPOCH":"30331","BSTAR":"0.00015346","MEAN_MOTION_DOT":"0.00004128","MEAN_MOTION_DDOT":"0","FILE":"4068824","TLE_LINE0":"0 GRACE-FO 1","TLE_LINE1":"1 43476U 18047A   23307.89962997  .00004128  00000-0  15346-3 0  9995","TLE_LINE2":"2 43476  88.9829 330.1794 0011938 208.5262 151.5336 15.27228360303314","OBJECT_ID":"2018-047A","OBJECT_NUMBER":"43476","SEMIMAJOR_AXIS":"6862.239","PERIOD":"94.288","APOGEE":"492.296","PERIGEE":"475.912","DECAYED":"0"},{"COMMENT":"GENERATED VIA SPACETRACK.ORG API","ORIGINATOR":"18 SPCS","NORAD_CAT_ID":"43476","OBJECT_NAME":"GRACE-FO 1","OBJECT_TYPE":"PAYLOAD","CLASSIFICATION_TYPE":"U","INTLDES":"18047A","EPOCH":"2023-11-04 13:19:00","EPOCH_MICROSECONDS":"717888","MEAN_MOTION":"15.27234386","ECCENTRICITY":"0.0012044","INCLINATION":"88.983","RA_OF_ASC_NODE":"330.0898","ARG_OF_PERICENTER":"205.7105","MEAN_ANOMALY":"154.3547","EPHEMERIS_TYPE":"0","ELEMENT_SET_NO":"999","REV_AT_EPOCH":"30341","BSTAR":"0.00016665","MEAN_MOTION_DOT":"0.00004482","MEAN_MOTION_DDOT":"0","FILE":"4070271","TLE_LINE0":"0 GRACE-FO 1","TLE_LINE1":"1 43476U 18047A   23308.55486942  .00004482  00000-0  16665-3 0  9998","TLE_LINE2":"2 43476  88.9830 330.0898 0012044 205.7105 154.3547 15.27234386303415","OBJECT_ID":"2018-047A","OBJECT_NUMBER":"43476","SEMIMAJOR_AXIS":"6862.221","PERIOD":"94.288","APOGEE":"492.351","PERIGEE":"475.821","DECAYED":"0"},{"COMMENT":"GENERATED VIA SPACETRACK.ORG API","ORIGINATOR":"18 SPCS","NORAD_CAT_ID":"43476","OBJECT_NAME":"GRACE-FO 1","OBJECT_TYPE":"PAYLOAD","CLASSIFICATION_TYPE":"U","INTLDES":"18047A","EPOCH":"2023-11-04 19:36:25","EPOCH_MICROSECONDS":"714656","MEAN_MOTION":"15.27237786","ECCENTRICITY":"0.0012092","INCLINATION":"88.983","RA_OF_ASC_NODE":"330.054","ARG_OF_PERICENTER":"204.6089","MEAN_ANOMALY":"155.4585","EPHEMERIS_TYPE":"0","ELEMENT_SET_NO":"999","REV_AT_EPOCH":"30345","BSTAR":"0.00018497","MEAN_MOTION_DOT":"0.00004972","MEAN_MOTION_DDOT":"0","FILE":"4070338","TLE_LINE0":"0 GRACE-FO 1","TLE_LINE1":"1 43476U 18047A   23308.81696429  .00004972  00000-0  18497-3 0  9999","TLE_LINE2":"2 43476  88.9830 330.0540 0012092 204.6089 155.4585 15.27237786303456","OBJECT_ID":"2018-047A","OBJECT_NUMBER":"43476","SEMIMAJOR_AXIS":"6862.211","PERIOD":"94.288","APOGEE":"492.374","PERIGEE":"475.778","DECAYED":"0"},{"COMMENT":"GENERATED VIA SPACETRACK.ORG API","ORIGINATOR":"18 SPCS","NORAD_CAT_ID":"43476","OBJECT_NAME":"GRACE-FO 1","OBJECT_TYPE":"PAYLOAD","CLASSIFICATION_TYPE":"U","INTLDES":"18047A","EPOCH":"2023-11-04 21:10:46","EPOCH_MICROSECONDS":"958016","MEAN_MOTION":"15.27238439","ECCENTRICITY":"0.0012109","INCLINATION":"88.983","RA_OF_ASC_NODE":"330.045","ARG_OF_PERICENTER":"204.3362","MEAN_ANOMALY":"155.7317","EPHEMERIS_TYPE":"0","ELEMENT_SET_NO":"999","REV_AT_EPOCH":"30346","BSTAR":"0.00018607","MEAN_MOTION_DOT":"0.00005001","MEAN_MOTION_DDOT":"0","FILE":"4070865","TLE_LINE0":"0 GRACE-FO 1","TLE_LINE1":"1 43476U 18047A   23308.88248794  .00005001  00000-0  18607-3 0  9991","TLE_LINE2":"2 43476  88.9830 330.0450 0012109 204.3362 155.7317 15.27238439303469","OBJECT_ID":"2018-047A","OBJECT_NUMBER":"43476","SEMIMAJOR_AXIS":"6862.209","PERIOD":"94.288","APOGEE":"492.383","PERIGEE":"475.765","DECAYED":"0"}]